NORAD_CAT_ID,OBJECT_NAME,OBJECT_TYPE,EPOCH,MEAN_MOTION,ECCENTRICITY,INCLINATION,RA_OF_ASC_NODE,ARG_OF_PERICENTER,MEAN_ANOMALY,BSTAR,MEAN_MOTION_DOT,MEAN_MOTION_DDOT,TLE_LINE0,TLE_LINE1,TLE_LINE2,SEMIMAJOR_AXIS,PERIOD,APOGEE,PERIGEE,DECAYED
50186.0,STARLINK-3274,PAYLOAD,2023-07-16 06:01:11,15.08847838,0.0001253,53.2178,282.1254,67.5546,292.5579,0.00010004,1.305e-05,0.0,0 STARLINK-3274,1 50186U 21125AG  23197.25083176  .00001305  00000-0  10004-3 0  9992,2 50186  53.2178 282.1254 0001253  67.5546 292.5579 15.08847838 89925,6917.856,95.437,540.588,538.855,0.0
50186.0,STARLINK-3274,PAYLOAD,2023-07-16 12:22:45,15.08835555,0.0001011,53.218,280.9351,82.6695,277.4412,-7.0724e-06,-4e-06,0.0,0 STARLINK-3274,1 50186U 21125AG  23197.51580501 -.00000400  00000-0 -70724-5 0  9999,2 50186  53.2180 280.9351 0001011  82.6695 277.4412 15.08835555 89962,6917.894,95.438,540.458,539.06,0.0
50186.0,STARLINK-3274,PAYLOAD,2023-07-17 12:13:31,15.08850673,9.64e-05,53.2177,276.474,89.5389,270.5713,0.00013574,1.874e-05,0.0,0 STARLINK-3274,1 50186U 21125AG  23198.50939276  .00001874  00000-0  13574-3 0  9998,2 50186  53.2177 276.4740 0000964  89.5389 270.5713 15.08850673 90117,6917.848,95.437,540.38,539.046,0.0
50186.0,STARLINK-3274,PAYLOAD,2023-07-17 21:45:50,15.08845667,9.66e-05,53.2164,274.6899,64.4095,295.6997,5.1667e-05,5.35e-06,0.0,0 STARLINK-3274,1 50186U 21125AG  23198.90683683  .00000535  00000-0  51667-4 0  9999,2 50186  53.2164 274.6899 0000966  64.4095 295.6997 15.08845667 90171,6917.863,95.437,540.396,539.06,0.0
50186.0,STARLINK-3274,PAYLOAD,2023-07-18 10:28:56,15.08835846,0.0001133,53.2183,272.3121,97.8094,262.3027,0.00012621,1.721e-05,0.0,0 STARLINK-3274,1 50186U 21125AG  23199.43676431  .00001721  00000-0  12621-3 0  9995,2 50186  53.2183 272.3121 0001133  97.8094 262.3027 15.08835846 90253,6917.893,95.438,540.542,538.974,0.0
50186.0,STARLINK-3274,PAYLOAD,2023-07-19 10:19:44,15.08835077,0.0001252,53.2183,267.85,109.5222,250.5905,-4.8107e-05,-1.053e-05,0.0,0 STARLINK-3274,1 50186U 21125AG  23200.43037164 -.00001053  00000-0 -48107-4 0  9991,2 50186  53.2183 267.8500 0001252 109.5222 250.5905 15.08835077 90406,6917.895,95.438,540.627,538.894,0.0
50186.0,STARLINK-3274,PAYLOAD,2023-07-20 11:45:53,15.0884744,9.64e-05,53.2171,263.0917,94.763,265.3472,6.5239e-05,7.51e-06,0.0,0 STARLINK-3274,1 50186U 21125AG  23201.49020420  .00000751  00000-0  65239-4 0  9992,2 50186  53.2171 263.0917 0000964  94.7630 265.3472 15.08847440 90567,6917.858,95.437,540.39,539.056,0.0
50186.0,STARLINK-3274,PAYLOAD,2023-07-21 05:15:08,15.08840975,9.83e-05,53.217,259.8207,91.985,268.1255,0.00014647,2.044e-05,0.0,0 STARLINK-3274,1 50186U 21125AG  23202.21884747  .00002044  00000-0  14647-3 0  9996,2 50186  53.2170 259.8207 0000983  91.9850 268.1255 15.08840975 90673,6917.877,95.437,540.422,539.062,0.0
50186.0,STARLINK-3274,PAYLOAD,2023-07-24 11:09:01,15.08840787,0.0001261,53.2167,245.2516,87.7175,272.3961,7.4286e-05,8.95e-06,0.0,0 STARLINK-3274,1 50186U 21125AG  23205.46460606  .00000895  00000-0  74286-4 0  9998,2 50186  53.2167 245.2516 0001261  87.7175 272.3961 15.08840787 91644,6917.878,95.438,540.615,538.871,0.0
50186.0,STARLINK-3274,PAYLOAD,2023-07-25 09:24:25,15.08852639,0.0001086,53.2172,241.0892,87.8059,272.3057,-0.00019995,-3.47e-05,0.0,0 STARLINK-3274,1 50186U 21125AG  23206.39196698 -.00003470  00000-0 -19995-3 0  9997,2 50186  53.2172 241.0892 0001086  87.8059 272.3057 15.08852639 91788,6917.842,95.437,540.458,538.955,0.0
50186.0,STARLINK-3274,PAYLOAD,2023-07-26 02:53:40,15.08838108,0.0001207,53.2175,237.8166,98.3422,261.7707,2.9003e-05,1.74e-06,0.0,0 STARLINK-3274,1 50186U 21125AG  23207.12061164  .00000174  00000-0  29003-4 0  9996,2 50186  53.2175 237.8166 0001207  98.3422 261.7707 15.08838108 91895,6917.886,95.438,540.586,538.916,0.0
50186.0,STARLINK-3274,PAYLOAD,2023-07-26 07:39:50,15.08839723,0.0001178,53.2173,236.9245,97.948,262.1645,3.7193e-05,3.04e-06,0.0,0 STARLINK-3274,1 50186U 21125AG  23207.31933060  .00000304  00000-0  37193-4 0  9994,2 50186  53.2173 236.9245 0001178  97.9480 262.1645 15.08839723 91921,6917.881,95.438,540.561,538.931,0.0
50186.0,STARLINK-3274,PAYLOAD,2023-07-27 01:09:04,15.08839818,0.0001027,53.216,233.6524,91.4146,268.6964,9.3645e-05,1.203e-05,0.0,0 STARLINK-3274,1 50186U 21125AG  23208.04796948  .00001203  00000-0  93645-4 0  9990,2 50186  53.2160 233.6524 0001027  91.4146 268.6964 15.08839818 92035,6917.881,95.438,540.456,539.035,0.0
50186.0,STARLINK-3274,PAYLOAD,2023-07-27 18:38:19,15.08839768,0.0001016,53.2159,230.3811,89.3313,270.7795,7.744e-05,9.45e-06,0.0,0 STARLINK-3274,1 50186U 21125AG  23208.77661048  .00000945  00000-0  77440-4 0  9999,2 50186  53.2159 230.3811 0001016  89.3313 270.7795 15.08839768 91664,6917.881,95.438,540.449,539.043,0.0
50186.0,STARLINK-3274,PAYLOAD,2023-07-28 02:35:15,15.08834026,0.000112,53.2171,228.8954,90.5818,269.5303,7.2611e-06,-1.72e-06,0.0,0 STARLINK-3274,1 50186U 21125AG  23209.10781714 -.00000172  00000-0  72611-5 0  9999,2 50186  53.2171 228.8954 0001120  90.5818 269.5303 15.08834026 91717,6917.899,95.438,540.538,538.989,0.0
50186.0,STARLINK-3274,PAYLOAD,2023-07-28 10:32:11,15.08835218,0.0001103,53.2164,227.408,89.2625,270.8494,1.2781e-05,-8.4e-07,0.0,0 STARLINK-3274,1 50186U 21125AG  23209.43901696 -.00000084  00000-0  12781-4 0  9991,2 50186  53.2164 227.4080 0001103  89.2625 270.8494 15.08835218 92245,6917.895,95.438,540.523,538.997,0.0
50186.0,STARLINK-3274,PAYLOAD,2023-07-29 07:12:11,15.08839485,0.0001146,53.2165,223.5424,87.449,272.6633,3.3948e-05,2.52e-06,0.0,0 STARLINK-3274,1 50186U 21125AG  23210.30013486  .00000252  00000-0  33948-4 0  9994,2 50186  53.2165 223.5424 0001146  87.4490 272.6633 15.08839485 91897,6917.882,95.438,540.54,538.954,0.0
50186.0,STARLINK-3274,PAYLOAD,2023-07-30 10:13:44,15.08843722,0.0001093,53.2163,218.4867,87.8674,272.2444,0.00012639,1.724e-05,0.0,0 STARLINK-3274,1 50186U 21125AG  23211.42620993  .00001724  00000-0  12639-3 0  9993,2 50186  53.2163 218.4867 0001093  87.8674 272.2444 15.08843722 92063,6917.869,95.437,540.49,538.978,0.0
50186.0,STARLINK-3274,PAYLOAD,2023-07-31 00:32:13,15.08839838,0.0001117,53.2163,215.81,91.9996,268.1124,4.7061e-05,4.61e-06,0.0,0 STARLINK-3274,1 50186U 21125AG  23212.02237433  .00000461  00000-0  47061-4 0  9998,2 50186  53.2163 215.8100 0001117  91.9996 268.1124 15.08839838 92156,6917.881,95.438,540.519,538.973,0.0
50186.0,STARLINK-3274,PAYLOAD,2023-08-01 16:16:51,15.08837735,0.0001092,53.2161,208.3759,92.3006,267.8111,-1.7066e-05,-5.59e-06,0.0,0 STARLINK-3274,1 50186U 21125AG  23213.67837684 -.00000559  00000-0 -17066-4 0  9996,2 50186  53.2161 208.3759 0001092  92.3006 267.8111 15.08837735 92404,6917.887,95.438,540.508,538.997,0.0
50186.0,STARLINK-3274,PAYLOAD,2023-08-03 03:15:20,15.08847511,0.000102,53.2162,201.8346,93.9,266.2109,0.00014631,2.042e-05,0.0,0 STARLINK-3274,1 50186U 21125AG  23215.13564853  .00002042  00000-0  14631-3 0  9995,2 50186  53.2162 201.8346 0001020  93.9000 266.2109 15.08847511 92624,6917.857,95.437,540.428,539.017,0.0
50186.0,STARLINK-3274,PAYLOAD,2023-08-03 15:58:25,15.08840422,0.0001088,53.2175,199.457,98.3996,261.712,9.4341e-05,1.214e-05,0.0,0 STARLINK-3274,1 50186U 21125AG  23215.66557440  .00001214  00000-0  94341-4 0  9994,2 50186  53.2175 199.4570 0001088  98.3996 261.7120 15.08840422 92702,6917.879,95.438,540.497,538.991,0.0
50186.0,STARLINK-3274,PAYLOAD,2023-08-04 03:06:08,15.08827581,0.0001013,53.2171,197.3745,97.1036,263.0071,-1.0001e-05,-4.47e-06,0.0,0 STARLINK-3274,1 50186U 21125AG  23216.12926699 -.00000447  00000-0 -10001-4 0  9992,2 50186  53.2171 197.3745 0001013  97.1036 263.0071 15.08827581 92777,6917.918,95.438,540.484,539.083,0.0
50186.0,STARLINK-3274,PAYLOAD,2023-08-04 15:49:13,15.0883327,9.64e-05,53.2164,194.9951,99.9993,260.1108,1.7507e-05,-9e-08,0.0,0 STARLINK-3274,1 50186U 21125AG  23216.65918413 -.00000009  00000-0  17507-4 0  9996,2 50186  53.2164 194.9951 0000964  99.9993 260.1108 15.08833270 92857,6917.901,95.438,540.433,539.099,0.0
50186.0,STARLINK-3274,PAYLOAD,2023-08-05 07:43:04,15.08844848,0.0001111,53.2171,192.0204,104.9528,255.1587,1.1877e-05,-9.9e-07,0.0,0 STARLINK-3274,1 50186U 21125AG  23217.32157775 -.00000099  00000-0  11877-4 0  9990,2 50186  53.2171 192.0204 0001111 104.9528 255.1587 15.08844848 92950,6917.866,95.437,540.499,538.962,0.0
50186.0,STARLINK-3274,PAYLOAD,2023-08-06 15:30:44,15.08877139,2.95e-05,53.2165,186.0726,104.6924,255.4101,0.00043653,6.674e-05,0.0,0 STARLINK-3274,1 50186U 21125AG  23218.64634661  .00006674  00000-0  43653-3 0  9990,2 50186  53.2165 186.0726 0000295 104.6924 255.4101 15.08877139 93151,6917.767,95.435,539.836,539.428,0.0
50186.0,STARLINK-3274,PAYLOAD,2023-08-07 04:13:53,15.08830509,0.0001109,53.2165,183.6938,98.0836,262.0282,-1.8672e-05,-5.85e-06,0.0,0 STARLINK-3274,1 50186U 21125AG  23219.17631228 -.00000585  00000-0 -18672-4 0  9996,2 50186  53.2165 183.6938 0001109  98.0836 262.0282 15.08830509 93235,6917.909,95.438,540.542,539.007,0.0
50186.0,STARLINK-3274,PAYLOAD,2023-08-08 07:15:24,15.08853322,0.0001042,53.2165,178.6398,89.7442,270.367,0.00016232,2.297e-05,0.0,0 STARLINK-3274,1 50186U 21125AG  23220.30237177  .00002297  00000-0  16232-3 0  9997,2 50186  53.2165 178.6398 0001042  89.7442 270.3670 15.08853322 93405,6917.84,95.437,540.426,538.984,0.0
50186.0,STARLINK-3274,PAYLOAD,2023-08-08 21:33:54,15.08831492,7.95e-05,53.2173,175.9631,95.0999,265.0084,9.4321e-05,1.213e-05,0.0,0 STARLINK-3274,1 50186U 21125AG  23220.89854760  .00001213  00000-0  94321-4 0  9997,2 50186  53.2173 175.9631 0000795  95.0999 265.0084 15.08831492 93498,6917.906,95.438,540.321,539.221,0.0
50186.0,STARLINK-3274,PAYLOAD,2023-08-09 05:30:49,15.08837957,9.88e-05,53.2167,174.4766,92.4414,267.6692,9.5936e-05,1.239e-05,0.0,0 STARLINK-3274,1 50186U 21125AG  23221.22974490  .00001239  00000-0  95936-4 0  9999,2 50186  53.2167 174.4766 0000988  92.4414 267.6692 15.08837957 93542,6917.887,95.438,540.435,539.068,0.0
